GEESAT-4 01             
1 65119U 25170A   26195.56999489  .00000793  00000+0  12114-3 0  9999
2 65119  49.9891  47.4627 0010338 154.7672 205.3773 14.84074657 50504
GEESAT-4 02             
1 65120U 25170B   26195.62649703  .00000717  00000+0  11219-3 0  9990
2 65120  49.9865  47.0031 0009729 192.7090 167.3605 14.84064139 50538
GEESAT-4 03             
1 65121U 25170C   26195.59180313  .00000810  00000+0  12327-3 0  9999
2 65121  49.9934  47.0027 0020284 165.9747 194.1759 14.84080906 50506
GEESAT-4 04             
1 65122U 25170D   26195.57909899  .00000713  00000+0  11640-3 0  9995
2 65122  49.9716   1.0216 0029745  58.4228 301.9607 14.82226477 51117
GEESAT-4 05             
1 65123U 25170E   26195.61261022  .00000719  00000+0  11703-3 0  9996
2 65123  49.9963   1.7617 0007841  67.5314 292.6453 14.82227012 51115
GEESAT-4 06             
1 65124U 25170F   26195.61496842  .00000807  00000+0  12285-3 0  9991
2 65124  49.9849  46.8768 0018750 145.7264 214.4888 14.84104000 50509
GEESAT-4 07             
1 65125U 25170G   26195.60358673  .00000819  00000+0  12414-3 0  9997
2 65125  49.9930  47.0718 0018059 158.7895 201.3796 14.84121903 50509
GEESAT-4 08             
1 65126U 25170H   26195.62910819  .00000742  00000+0  12009-3 0  9991
2 65126  49.9672   0.3980 0020794  87.7843 272.5475 14.82211868 51120
GEESAT-4 09             
1 65127U 25170J   26195.60522364  .00000710  00000+0  11804-3 0  9991
2 65127  49.9920  77.3172 0021982 135.3354 224.9359 14.81465741 50065
GEESAT-4 10             
1 65128U 25170K   26195.59698526  .00000674  00000+0  11151-3 0  9998
2 65128  49.9794   0.5894 0024759  36.1997 324.0610 14.82252735 51128
GEESAT-4 11             
1 65129U 25170L   26195.58074391  .00000765  00000+0  11782-3 0  9997
2 65129  49.9849  46.6914 0006986 195.1814 164.8916 14.84082638 50505
KUIPER-00081            
1 65132U 25171A   26195.61053819  .00001662  00000+0  24694-3 0  9991
2 65132  51.9017 306.8308 0000464 109.0429 251.0584 14.79936610 51837
KUIPER-00088            
1 65133U 25171B   26195.59166928  .00001851  00000+0  27170-3 0  9997
2 65133  51.9012 324.4160 0000621 120.2368 239.8656 14.79932837 51580
KUIPER-00095            
1 65134U 25171C   26195.61323812  .00001645  00000+0  24469-3 0  9997
2 65134  51.8989 304.3684 0000342  72.8551 287.2449 14.79938248 51867
KUIPER-00096            
1 65135U 25171D   26195.63351719  .00001697  00000+0  25146-3 0  9997
2 65135  51.9017 316.7280 0000351 124.7078 235.3917 14.79935776 51699
KUIPER-00097            
1 65136U 25171E   26195.56331184  .00001715  00000+0  25393-3 0  9999
2 65136  51.9032 319.6944 0000415 104.2649 255.8359 14.79932091 51632
KUIPER-00098            
1 65137U 25171F   26195.56059626  .00001673  00000+0  24831-3 0  9997
2 65137  51.9029 322.0717 0000404 103.9036 256.1972 14.79937928 50952
KUIPER-00099            
1 65138U 25171G   26195.53761800  .00001683  00000+0  24969-3 0  9992
2 65138  51.9042 312.1780 0000531 121.7529 238.3485 14.79937396 51742
KUIPER-00100            
1 65139U 25171H   26195.57407231  .00001743  00000+0  25753-3 0  9991
2 65139  51.9029 309.4866 0000436 108.9265 251.1745 14.79938245 51780
KUIPER-00102            
1 65140U 25171J   26195.57136807  .00001050  00000+0  16675-3 0  9995
2 65140  51.8994 311.9865 0000271  73.4559 286.6433 14.79935169 51743
KUIPER-00103            
1 65141U 25171K   26195.58626558  .00001566  00000+0  23429-3 0  9991
2 65141  51.9008 329.4180 0000437 117.4831 242.6176 14.79937824 51501
KUIPER-00104            
1 65142U 25171L   26195.53222593  .00000165  00000+0  50681-4 0  9993
2 65142  51.9027 317.1582 0000393 106.0028 254.0977 14.79932866 51671
KUIPER-00105            
1 65143U 25171M   26195.55791490  .00000074  00000+0  38766-4 0  9992
2 65143  51.9021 324.6455 0000484 110.2340 249.8674 14.79933114 51575
KUIPER-00106            
1 65144U 25171N   26195.60616012  .00001718  00000+0  25428-3 0  9991
2 65144  51.9022 303.1942 0000381 107.2318 252.8686 14.79928167 51880
KUIPER-00107            
1 65145U 25171P   26195.57678393  .00000746  00000+0  12686-3 0  9990
2 65145  51.9014 307.0041 0000428 110.2772 249.8237 14.79933599 51822
KUIPER-00108            
1 65146U 25171Q   26195.59706810  .00001846  00000+0  27108-3 0  9996
2 65146  51.9036 319.4503 0000460 110.5741 249.5271 14.79930264 51654
KUIPER-00109            
1 65147U 25171R   26195.56868748  .00000011  00000+0  30482-4 0  9996
2 65147  51.9024 314.5162 0000924 144.9171 215.1852 14.79935866 51716
KUIPER-00110            
1 65148U 25171S   26195.58897758  .00001672  00000+0  24829-3 0  9993
2 65148  51.9006 326.9865 0000485  92.0932 268.0086 14.79936488 51531
KUIPER-00111            
1 65149U 25171T   26195.61733440  .00000326  00000+0  71804-4 0  9996
2 65149  51.8985 331.7389 0000419 108.8396 251.2612 14.79932772 51473
KUIPER-00112            
1 65150U 25171U   26195.53493555  .00000334  00000+0  72788-4 0  9990
2 65150  51.9034 314.7179 0000432  66.8142 293.2866 14.79933148 51707
