OBJECT_NAME,OBJECT_ID,EPOCH,MEAN_MOTION,ECCENTRICITY,INCLINATION,RA_OF_ASC_NODE,ARG_OF_PERICENTER,MEAN_ANOMALY,EPHEMERIS_TYPE,CLASSIFICATION_TYPE,NORAD_CAT_ID,ELEMENT_SET_NO,REV_AT_EPOCH,BSTAR,MEAN_MOTION_DOT,MEAN_MOTION_DDOT
GEESAT-4 01,2025-170A,2026-07-14T13:40:47.558496,14.84074657,.00103385,49.9891,47.4627,154.7672,205.3773,0,U,65119,999,5050,.12114127E-3,.793E-5,0
GEESAT-4 02,2025-170B,2026-07-14T15:02:09.343392,14.84064139,.00097295,49.9865,47.0031,192.7090,167.3605,0,U,65120,999,5053,.11219378E-3,.717E-5,0
GEESAT-4 03,2025-170C,2026-07-14T14:12:11.790432,14.84080906,.0020284,49.9934,47.0027,165.9747,194.1759,0,U,65121,999,5050,.12326666E-3,.81E-5,0
GEESAT-4 04,2025-170D,2026-07-14T13:53:54.152736,14.82226477,.00297451,49.9716,1.0216,58.4228,301.9607,0,U,65122,999,5111,.1163975E-3,.713E-5,0
GEESAT-4 05,2025-170E,2026-07-14T14:42:09.523008,14.82227012,.00078412,49.9963,1.7617,67.5314,292.6453,0,U,65123,999,5111,.11702513E-3,.719E-5,0
GEESAT-4 06,2025-170F,2026-07-14T14:45:33.271488,14.84104000,.00187503,49.9849,46.8768,145.7264,214.4888,0,U,65124,999,5050,.12285028E-3,.807E-5,0
GEESAT-4 07,2025-170G,2026-07-14T14:29:09.893472,14.84121903,.00180591,49.9930,47.0718,158.7895,201.3796,0,U,65125,999,5050,.12414457E-3,.819E-5,0
GEESAT-4 08,2025-170H,2026-07-14T15:05:54.947616,14.82211868,.00207949,49.9672,0.3980,87.7843,272.5475,0,U,65126,999,5112,.12008536E-3,.742E-5,0
GEESAT-4 09,2025-170J,2026-07-14T14:31:31.322496,14.81465741,.00219827,49.9920,77.3172,135.3354,224.9359,0,U,65127,999,5006,.11803591E-3,.71E-5,0
GEESAT-4 10,2025-170K,2026-07-14T14:19:39.526464,14.82252735,.00247593,49.9794,0.5894,36.1997,324.0610,0,U,65128,999,5112,.11150784E-3,.674E-5,0
GEESAT-4 11,2025-170L,2026-07-14T13:56:16.273824,14.84082638,.00069863,49.9849,46.6914,195.1814,164.8916,0,U,65129,999,5050,.11781552E-3,.765E-5,0
KUIPER-00081,2025-171A,2026-07-14T14:39:10.499616,14.79936610,.00004641,51.9017,306.8308,109.0429,251.0584,0,U,65132,999,5183,.2469374E-3,.1662E-4,0
KUIPER-00088,2025-171B,2026-07-14T14:12:00.225792,14.79932837,.00006215,51.9012,324.4160,120.2368,239.8656,0,U,65133,999,5158,.27170208E-3,.1851E-4,0
KUIPER-00095,2025-171C,2026-07-14T14:43:03.773568,14.79938248,.00003428,51.8989,304.3684,72.8551,287.2449,0,U,65134,999,5186,.24469104E-3,.1645E-4,0
KUIPER-00096,2025-171D,2026-07-14T15:12:15.885216,14.79935776,.00003511,51.9017,316.7280,124.7078,235.3917,0,U,65135,999,5169,.25145885E-3,.1697E-4,0
KUIPER-00097,2025-171E,2026-07-14T13:31:10.142976,14.79932091,.00004156,51.9032,319.6944,104.2649,255.8359,0,U,65136,999,5163,.25392675E-3,.1715E-4,0
KUIPER-00098,2025-171F,2026-07-14T13:27:15.516864,14.79937928,.00004048,51.9029,322.0717,103.9036,256.1972,0,U,65137,999,5095,.24831002E-3,.1673E-4,0
KUIPER-00099,2025-171G,2026-07-14T12:54:10.195200,14.79937396,.00005316,51.9042,312.1780,121.7529,238.3485,0,U,65138,999,5174,.24968526E-3,.1683E-4,0
KUIPER-00100,2025-171H,2026-07-14T13:46:39.847584,14.79938245,.00004367,51.9029,309.4866,108.9265,251.1745,0,U,65139,999,5178,.25752653E-3,.1743E-4,0
KUIPER-00102,2025-171J,2026-07-14T13:42:46.201248,14.79935169,.00002718,51.8994,311.9865,73.4559,286.6433,0,U,65140,999,5174,.16675231E-3,.105E-4,0
KUIPER-00103,2025-171K,2026-07-14T14:04:13.346112,14.79937824,.00004371,51.9008,329.4180,117.4831,242.6176,0,U,65141,999,5150,.23428524E-3,.1566E-4,0
KUIPER-00104,2025-171L,2026-07-14T12:46:24.320352,14.79932866,.00003934,51.9027,317.1582,106.0028,254.0977,0,U,65142,999,5167,.50680709E-4,.165E-5,0
KUIPER-00105,2025-171M,2026-07-14T13:23:23.847360,14.79933114,.00004846,51.9021,324.6455,110.2340,249.8674,0,U,65143,999,5157,.3876642E-4,.74E-6,0
KUIPER-00106,2025-171N,2026-07-14T14:32:52.234368,14.79928167,.00003817,51.9022,303.1942,107.2318,252.8686,0,U,65144,999,5188,.25427939E-3,.1718E-4,0
KUIPER-00107,2025-171P,2026-07-14T13:50:34.131552,14.79933599,.00004281,51.9014,307.0041,110.2772,249.8237,0,U,65145,999,5182,.12685813E-3,.746E-5,0
KUIPER-00108,2025-171Q,2026-07-14T14:19:46.683840,14.79930264,.00004607,51.9036,319.4503,110.5741,249.5271,0,U,65146,999,5165,.27107566E-3,.1846E-4,0
KUIPER-00109,2025-171R,2026-07-14T13:38:54.598272,14.79935866,.00009248,51.9024,314.5162,144.9171,215.1852,0,U,65147,999,5171,.30481597E-4,.11E-6,0
KUIPER-00110,2025-171S,2026-07-14T14:08:07.662912,14.79936488,.00004854,51.9006,326.9865,92.0932,268.0086,0,U,65148,999,5153,.24828548E-3,.1672E-4,0
KUIPER-00111,2025-171T,2026-07-14T14:48:57.692160,14.79932772,.00004199,51.8985,331.7389,108.8396,251.2612,0,U,65149,999,5147,.71803515E-4,.326E-5,0
KUIPER-00112,2025-171U,2026-07-14T12:50:18.431520,14.79933148,.00004325,51.9034,314.7179,66.8142,293.2866,0,U,65150,999,5170,.72787625E-4,.334E-5,0
